177P/Barnard,e,31.1507,271.9907,60.5174,24.47876,0.0081380,0.95524265,47.7858,10/04.0/2022,2000,g 15.0,4.0
# From MPEC 2021-F20
178P/Hug-Bell,e,11.0872,102.8457,297.8286,3.632560,0.1423590,0.48240086,115.1748,10/04.0/2022,2000,g 14.6,4.0
# From MPEC 2022-C56
179P/Jedicke,e,19.8981,115.5131,296.9552,5.932184,0.0682154,0.30585262,8.6243,10/04.0/2022,2000,g  2.5,8.0
# From MPC100284
180P/NEAT,e,16.8614,84.5711,94.6958,3.866058,0.1296587,0.35318006,323.5239,10/04.0/2022,2000,g 11.0,4.0
# From MPC 89012
181P/Shoemaker-Levy,e,17.4859,35.3995,336.2506,3.874454,0.1292374,0.70058683,34.6669,10/04.0/2022,2000,g 11.5,4.0
# From MPEC 2014-J10
182P/LONEOS,e,16.2272,72.4573,54.2332,2.950645,0.1944593,0.66322612,28.1494,10/04.0/2022,2000,g 18.0,4.0
# From MPEC 2022-K19
183P/Korlevic-Juric,e,19.0286,3.9697,168.3883,4.626093,0.0990564,0.11583583,178.0982,10/04.0/2022,2000,g 12.5,2.0
# From MPEC 2020-W26
184P/Lovas,e,4.5739,173.2407,186.5315,3.796681,0.1332288,0.55102073,94.2806,10/04.0/2022,2000,g 13.5,4.0
# From MPC109593
185P/Petriew,e,14.0143,214.1132,181.8855,3.098005,0.1807511,0.69965494,309.0432,10/04.0/2022,2000,g 15.0,4.0
# From MPEC 2021-W31
186P/Garradd,e,28.6956,326.4320,270.0649,4.860315,0.0919830,0.12366069,125.6090,10/04.0/2022,2000,g  7.5,4.0
# From MPEC 2020-SI8
187P/LINEAR,e,13.6355,109.8964,131.4512,4.566006,0.1010181,0.15221531,162.2758,10/04.0/2022,2000,g  9.0,4.0
# From MPEC 2022-K19
188P/LINEAR-Mueller,e,10.5262,358.9667,26.6103,4.371352,0.1078401,0.41666990,221.2447,10/04.0/2022,2000,g 11.5,4.0
# From MPEC 2022-QD9
189P/NEAT,e,20.0684,281.7162,16.3313,2.945685,0.1949506,0.58871555,7.0482,10/04.0/2022,2000,g 19.0,4.0
# From MPEC 2020-K19
190P/Mueller,e,2.1740,335.5492,50.3680,4.231232,0.1132410,0.52211253,268.0459,10/04.0/2022,2000,g 13.0,4.0
# From MPEC 2022-C56
191P/McNaught,e,8.8406,98.2265,284.0996,3.636982,0.1420994,0.38600947,79.9495,10/04.0/2022,2000,g 13.0,4.0
# From MPC 75724
192P/Shoemaker-Levy,e,24.5830,51.6102,313.0401,6.469714,0.0598930,0.77346628,324.1646,10/04.0/2022,2000,g 15.0,4.0
# From MPEC 2022-K19
193P/LINEAR-NEAT,e,10.6883,335.1741,8.0887,3.576458,0.1457218,0.39373783,58.9911,10/04.0/2022,2000,g 14.0,4.0
# From MPC 98566
194P/LINEAR,e,11.8726,349.6355,128.5789,4.127793,0.1175242,0.56595710,302.7232,10/04.0/2022,2000,g 16.0,4.0
# From MPEC 2021-S45
195P/Hill,e,36.3358,243.1215,249.2494,6.507503,0.0593721,0.31426321,299.0477,10/04.0/2022,2000,g  8.5,4.0
# From MPEC 2022-ST7
196P/Tichy,e,19.3009,24.1111,12.0497,3.805939,0.1327429,0.42844281,356.6373,10/04.0/2022,2000,g 13.5,4.0
# From MPC 94676
197P/LINEAR,e,25.5279,66.3626,188.7493,2.867957,0.2029295,0.62936123,346.8652,10/04.0/2022,2000,g 16.5,2.0
# From NK 1596
198P/ODAS,e,1.3385,358.2323,69.1907,3.596776,0.1444887,0.44412730,200.7693,10/04.0/2022,2000,g  9.0,4.0
# From MPEC 2022-N37
199P/Shoemaker,e,24.9339,92.3529,191.7595,5.885916,0.0690213,0.50553774,338.7745,10/04.0/2022,2000,g 10.0,4.0
# From MPEC 2022-C56
200P/Larsen,e,12.0979,234.7507,134.2670,4.945321,0.0896215,0.33267689,104.1420,10/04.0/2022,2000,g  9.0,4.0
# From MPC 93588
201P/LONEOS,e,5.7397,19.7453,41.5423,3.354601,0.1604142,0.63726280,79.4434,10/04.0/2022,2000,g 14.0,4.0
# From MPEC 2022-ST7
202P/Scotti,e,2.1313,177.3095,275.4552,4.109861,0.1182942,0.25814573,289.7605,10/04.0/2022,2000,g 13.5,4.0
# From MPEC 2021-S45
203P/Korlevic,e,2.9727,290.3040,154.7730,4.669667,0.0976732,0.31558252,92.1286,10/04.0/2022,2000,g 14.5,2.0
# From MPEC 2022-QD9
204P/LINEAR-NEAT,e,6.5962,108.5000,356.6490,3.581118,0.1454374,0.48776531,353.6199,10/04.0/2022,2000,g 14.0,4.0
# From MPEC 2022-K19
205P/Giacobini,e,15.3063,179.6025,154.1698,3.542151,0.1478439,0.56805248,38.9318,10/04.0/2022,2000,g 13.0,4.0
# From MPC 75725
206P/Barnard-Boattini,e,33.6388,202.3322,189.5210,3.489621,0.1511947,0.55151854,87.4481,10/04.0/2022,2000,g 19.0,4.0
# From MPC 75725
207P/NEAT,e,10.1995,198.1739,273.0523,3.877680,0.1290762,0.75850161,297.4235,10/04.0/2022,2000,g 16.0,4.0
# From MPEC 2022-K19
208P/McMillan,e,4.4124,36.3397,310.5664,4.042568,0.1212601,0.37415658,276.3890,10/04.0/2022,2000,g 12.5,4.0
# From MPC 90771
209P/LINEAR,e,21.2617,62.7684,152.4390,2.959900,0.1935479,0.67323033,234.2120,10/04.0/2022,2000,g 17.0,2.0
# From MPC105242
210P/Christensen,e,10.2713,93.8097,345.8966,3.163203,0.1751916,0.83354306,159.2495,10/04.0/2022,2000,g 13.5,4.0
# From MPEC 2022-ED3
211P/Hill,e,18.9205,117.1320,4.2769,3.546982,0.1475420,0.34377595,359.9123,10/04.0/2022,2000,g 12.5,4.0
# From MPEC 2021-F20
212P/NEAT,e,22.1567,98.1032,14.0545,3.897080,0.1281136,0.58712466,287.0814,10/04.0/2022,2000,g 17.0,2.0
# From MPEC 2022-GA9
213P/Van Ness,e,10.3808,311.2866,5.7342,3.346627,0.1609879,0.40819270,295.0163,10/04.0/2022,2000,g 10.5,4.0
# From MPC 92986
214P/LINEAR,e,15.1832,348.2491,190.1835,3.620098,0.1430947,0.48593124,1.1131,10/04.0/2022,2000,g 13.0,4.0
# From MPEC 2022-F14
215P/NEAT,e,10.5779,56.6817,262.3681,4.330440,0.1093720,0.16634119,114.7899,10/04.0/2022,2000,g 11.0,4.0
# From MPC100284
216P/LINEAR,e,9.0647,359.8107,151.5938,3.860712,0.1299281,0.44847890,300.2777,10/04.0/2022,2000,g 13.0,4.0
# From MPEC 2021-N06
217P/LINEAR,e,12.8624,125.4415,246.9131,3.948972,0.1255966,0.68925144,238.9665,10/04.0/2022,2000,g 12.0,4.0
# From MPEC 2022-K19
218P/LINEAR,e,2.7300,175.9988,59.5996,3.089304,0.1815152,0.62276280,132.5355,10/04.0/2022,2000,g 16.0,4.0
# From MPC100284
219P/LINEAR,e,11.5382,230.9515,107.5528,3.647269,0.1414987,0.35415003,289.5908,10/04.0/2022,2000,g 11.0,4.0
# From MPEC 2021-BE3
220P/McNaught,e,8.1284,150.1035,180.5930,3.117267,0.1790783,0.50149146,118.6197,10/04.0/2022,2000,g 15.0,4.0
# From MPEC 2022-ST7
221P/LINEAR,e,11.4341,229.6513,40.1812,3.459165,0.1531959,0.49332260,44.3986,10/04.0/2022,2000,g 14.5,4.0
# From MPC 92277
222P/LINEAR,e,5.0985,6.7761,346.2722,2.898867,0.1996925,0.71480082,242.8224,10/04.0/2022,2000,g 20.0,4.0
# From MPEC 2021-S45
223P/Skiff,e,27.0254,346.7695,37.8433,4.158704,0.1162163,0.41646117,156.2501,10/04.0/2022,2000,g 12.0,4.0
# From MPC 75727
224P/LINEAR-NEAT,e,13.3058,40.0384,16.6681,3.443771,0.1542243,0.40588554,0.6218,10/04.0/2022,2000,g 15.5,4.0
# From MPC 75727
225P/LINEAR,e,21.3668,14.2048,3.9057,3.648298,0.1414388,0.63844860,316.4274,10/04.0/2022,2000,g 18.0,4.0
# From MPC106349
226P/Pigott-LINEAR-Kowalski,e,44.0428,54.0105,341.0633,3.766360,0.1348408,0.52891795,299.4202,10/04.0/2022,2000,g 12.5,4.0
# From MPC102956
227P/Catalina-LINEAR,e,7.4750,36.9391,105.0491,3.455899,0.1534132,0.52980368,280.2978,10/04.0/2022,2000,g 16.5,2.0
# From MPEC 2022-HC2
228P/LINEAR,e,7.9132,30.9864,114.9160,4.167518,0.1158478,0.17625750,108.8549,10/04.0/2022,2000,g 14.1,4.0
# From MPC106349
229P/Gibbs,e,26.0920,157.9075,224.0352,3.927039,0.1266503,0.37782690,248.1131,10/04.0/2022,2000,g 13.0,4.0
# From MPEC 2022-GA9
230P/LINEAR,e,15.4693,106.9829,313.4434,3.451990,0.1536737,0.54552312,30.5266,10/04.0/2022,2000,g 13.0,4.0
# From MPEC 2022-K19
231P/LINEAR-NEAT,e,12.3050,132.9935,44.1671,4.044657,0.1211662,0.24369312,146.1351,10/04.0/2022,2000,g 14.5,2.0
# From MPC112394
232P/Hill,e,14.6415,56.0212,53.2592,4.475922,0.1040831,0.33460113,132.9527,10/04.0/2022,2000,g 11.5,4.0
# From MPEC 2021-N06
233P/La Sagra,e,11.2876,74.9153,26.9742,3.028813,0.1869801,0.41208074,136.9385,10/04.0/2022,2000,g 15.0,4.0
# From MPEC 2022-K19
234P/LINEAR,e,11.5358,179.5731,357.2687,3.797300,0.1331962,0.25616280,260.0455,10/04.0/2022,2000,g 12.0,4.0
# From MPC110497
235P/LINEAR,e,9.3183,202.3874,333.8886,3.915311,0.1272198,0.34037483,208.8691,10/04.0/2022,2000,g 12.0,4.0
# From MPC107688
236P/LINEAR,e,16.3475,245.5798,119.3191,3.728489,0.1369004,0.50937590,243.1508,10/04.0/2022,2000,g 14.0,4.0
# From MPEC 2022-K19
237P/LINEAR,e,14.0155,245.3616,25.2557,3.511685,0.1497720,0.43416914,326.6503,10/04.0/2022,2000,g 14.5,2.0
# From MPEC 2022-ST7
238P/Read,e,1.2640,51.6257,324.2024,3.166001,0.1749595,0.25162977,21.0972,10/04.0/2022,2000,g 14.5,4.0
# From MPEC 2021-F20
239P/LINEAR,e,11.3017,255.9239,220.3820,4.468025,0.1043592,0.63024935,142.3291,10/04.0/2022,2000,g 17.5,2.0
# From MPEC 2021-F20
240P/NEAT,e,23.5263,74.9077,351.9463,3.864627,0.1297307,0.44968187,207.7928,10/04.0/2022,2000,g 12.1,4.0
# From MPEC 2022-J42
241P/LINEAR,e,21.1029,305.4785,111.4534,4.920622,0.0902971,0.61029387,39.2872,10/04.0/2022,2000,g 13.5,4.0
# From MPEC 2021-S45
242P/Spahr,e,32.5107,180.3747,245.4835,5.499818,0.0764155,0.27889611,297.6182,10/04.0/2022,2000,g  8.0,4.0
# From MPEC 2022-K19
243P/NEAT,e,7.6411,87.6046,283.6182,3.830012,0.1314934,0.36058626,196.9935,10/04.0/2022,2000,g 12.5,4.0
# From MPEC 2022-ST7
244P/Scotti,e,2.2593,353.9915,93.0992,4.895808,0.0909845,0.19923315,355.9797,10/04.0/2022,2000,g  9.0,4.0
# From MPEC 2022-CN4
245P/WISE,e,21.1914,316.6620,316.8685,4.046954,0.1210631,0.45631405,205.7540,10/04.0/2022,2000,g 14.0,4.0
# From MPEC 2022-ST7
246P/NEAT,e,15.9718,78.3482,177.1935,4.034770,0.1216118,0.28955464,71.1996,10/04.0/2022,2000,g 10.5,4.0
# From MPEC 2021-F20
247P/LINEAR,e,13.6580,54.0248,47.4132,3.967693,0.1247088,0.62456102,174.9293,10/04.0/2022,2000,g 16.5,2.0
# From MPC 75730
248P/Gibbs,e,6.3510,207.8070,209.8578,5.990481,0.0672220,0.63899120,287.5954,10/04.0/2022,2000,g 14.0,4.0
# From MPEC 2021-S45
249P/LINEAR,e,8.3876,239.0966,65.7190,2.763542,0.2145384,0.81979208,177.3256,10/04.0/2022,2000,g 15.5,4.0
# From MPC110497
250P/Larson,e,13.1524,73.3800,46.1170,3.767653,0.1347714,0.39906811,231.0333,10/04.0/2022,2000,g 14.5,4.0
# From MPC104795
251P/LINEAR,e,23.3864,219.3494,31.2685,3.512533,0.1497178,0.50454979,285.5495,10/04.0/2022,2000,g 16.5,2.0
# From MPEC 2021-S45
252P/LINEAR,e,10.4124,190.9203,343.3774,3.050631,0.1849777,0.67149818,83.2075,10/04.0/2022,2000,g 17.5,4.0
# From MPEC 2020-FB5
253P/PANSTARRS,e,4.9434,146.8821,230.6920,3.464870,0.1528177,0.41449471,245.7229,10/04.0/2022,2000,g 14.5,4.0
# From MPEC 2022-K19
254P/McNaught,e,32.5685,129.1824,219.6311,4.615050,0.0994121,0.31973011,72.9407,10/04.0/2022,2000,g 11.0,4.0
# From MPEC 2021-UA9
